STARLINK-36843          
1 67856U 26034G   26076.62881524  .00171121  00000+0  85209-3 0  9993
2 67856  53.1583 171.5075 0001255  66.4070 293.7085 15.80907630  5199
STARLINK-36828          
1 67857U 26034H   26076.43990505  .00153082  00000+0  76381-3 0  9990
2 67857  53.1586 172.4625 0001625  19.0781 341.0303 15.80919472  5162
STARLINK-36837          
1 67858U 26034J   26076.62806242  .00194075  00000+0  96230-3 0  9998
2 67858  53.1584 171.5026 0000890 123.1318 236.9790 15.80931006  5194
STARLINK-36393          
1 67859U 26034K   26076.43765316  .00290763  00000+0  14217-2 0  9999
2 67859  53.1579 172.4472 0001751   8.4151 351.6901 15.80963528  5161
STARLINK-35873          
1 67860U 26034L   26076.43690256  .00460151  00000+0  21954-2 0  9997
2 67860  53.1585 172.4417 0001563 163.4050 196.7024 15.81045705  5196
STARLINK-36325          
1 67861U 26034M   26076.43615407  .00440509  00000+0  21084-2 0  9992
2 67861  53.1585 172.4374 0000932 152.6794 207.4278 15.81027034  5166
STARLINK-36332          
1 67862U 26034N   26076.43540365  .00429764  00000+0  20591-2 0  9995
2 67862  53.1585 172.4318 0000585 115.4206 244.6877 15.81032137  5162
STARLINK-36835          
1 67863U 26034P   26076.43465211  .00466361  00000+0  22225-2 0  9992
2 67863  53.1592 172.4264 0000743 104.2177 255.8929 15.81052628  5169
STARLINK-36831          
1 67864U 26034Q   26076.43390273  .00290480  00000+0  14202-2 0  9991
2 67864  53.1583 172.4219 0002284  11.7343 348.3733 15.80965192  5168
STARLINK-36738          
1 67865U 26034R   26076.43315391  .00278025  00000+0  13607-2 0  9999
2 67865  53.1586 172.4167 0000423  93.9038 266.2033 15.80976356  5165
STARLINK-36780          
1 67866U 26034S   26076.43240279  .00463190  00000+0  22089-2 0  9995
2 67866  53.1584 172.4106 0000711 163.5463 196.5583 15.81045771  5167
STARLINK-36761          
1 67867U 26034T   26076.55809236  .00306933  00000+0  15015-2 0  9995
2 67867  53.1593 171.7715 0000998  43.2460 316.8641 15.80908302  5185
STARLINK-36762          
1 67868U 26034U   26076.55734361  .00229315  00000+0  11341-2 0  9998
2 67868  53.1592 171.7670 0001208  60.0605 300.0537 15.80886292  5180
STARLINK-36779          
1 67869U 26034V   26076.58335648  .00023903  00000+0  12431-3 0  9994
2 67869  53.1589 171.6300 0001086  86.8851  65.6465 15.80871940  5121
STARLINK-36770          
1 67870U 26034W   26076.55509104  .00336270  00000+0  16388-2 0  9991
2 67870  53.1595 171.7510 0000915  59.9005 300.2109 15.80912228  5180
STARLINK-36769          
1 67871U 26034X   26076.55583978  .00337820  00000+0  16466-2 0  9992
2 67871  53.1588 171.7564 0001255  59.9867 300.1280 15.80904317  5185
STARLINK-36786          
1 67872U 26034Y   26076.55434380  .00276937  00000+0  13614-2 0  9998
2 67872  53.1592 171.7459 0001263  93.6833 266.4335 15.80883801  5180
STARLINK-36783          
1 67873U 26034Z   26076.55359179  .00331674  00000+0  16186-2 0  9998
2 67873  53.1589 171.7407 0001030  65.1034 295.0095 15.80894536  5187
STARLINK-36730          
1 67874U 26034AA  26076.55284072  .00344400  00000+0  16767-2 0  9994
2 67874  53.1590 171.7359 0001195  63.3871 296.7274 15.80912897  5185
STARLINK-36727          
1 67875U 26034AB  26076.61531051  .00205847  00000+0  10188-2 0  9996
2 67875  53.1588 171.4138 0001062  95.3492 264.7652 15.80937449  5198
STARLINK-36743          
1 67876U 26034AC  26076.55134200  .00371964  00000+0  18071-2 0  9998
2 67876  53.1598 171.7258 0000797  89.1778 270.9336 15.80884353  5180
STARLINK-36784          
1 67877U 26034AD  26076.55058738  .00185693  00000+0  92064-3 0  9997
2 67877  53.1590 171.7207 0000878 111.8269 248.2848 15.80958218  5183
STARLINK-36689          
1 67878U 26034AE  26076.54984003  .00331048  00000+0  16147-2 0  9994
2 67878  53.1590 171.7157 0000834  90.4090 269.7029 15.80908031  5181
STARLINK-36818          
1 67879U 26035A   26076.58335648 -.00045609  00000+0 -30638-3 0  9994
2 67879  97.2866   9.3533 0001610 101.6504 300.6391 15.75201337  5028
STARLINK-36821          
1 67880U 26035B   26076.58335648 -.00109796  00000+0 -74351-3 0  9994
2 67880  97.2863   9.3588 0001558 101.6902 316.5959 15.75227097  5027
STARLINK-36808          
1 67881U 26035C   26076.56338635  .00335926  00000+0  16790-2 0  9998
2 67881  97.2885   9.3558 0001456  81.7714 278.3720 15.80930596  5083
STARLINK-36817          
1 67882U 26035D   26076.56112604  .00326729  00000+0  16202-2 0  9994
2 67882  97.2903   9.3578 0002806 202.0418 158.0731 15.81126066  5082
STARLINK-36856          
1 67883U 26035E   26076.56188266  .00287636  00000+0  14493-2 0  9995
2 67883  97.2897   9.3572 0001581  95.4322 264.7126 15.80877549  5087
STARLINK-36842          
1 67884U 26035F   26076.58335648 -.00077488  00000+0 -52290-3 0  9998
2 67884  97.2866   9.3637 0001650  82.9143 351.3713 15.75209327  5021
STARLINK-36826          
1 67885U 26035G   26076.58335648 -.00341833  00000+0 -23635-2 0  9997
2 67885  97.2864   9.3840 0001189  98.8941  25.3085 15.75386758  5029
STARLINK-36390          
1 67886U 26035H   26076.58335648 -.00035523  00000+0 -23818-3 0  9998
2 67886  97.2865   9.3688 0001551 113.4081 332.8679 15.75198633  5076
STARLINK-36368          
1 67887U 26035J   26076.55812660  .00287899  00000+0  14505-2 0  9995
2 67887  97.2918   9.3610 0001527  87.2025 272.9418 15.80879183  5088
STARLINK-36801          
1 67888U 26035K   26076.55737785  .00465394  00000+0  22977-2 0  9990
2 67888  97.2894   9.3614 0001986  75.9074 284.2415 15.80868313  5089
STARLINK-36372          
1 67889U 26035L   26076.55586913  .00219791  00000+0  11156-2 0  9991
2 67889  97.2905   9.3623 0001071 121.2757 238.8616 15.80892653  5083
STARLINK-36363          
1 67890U 26035M   26076.58335648 -.00036066  00000+0 -24187-3 0  9996
2 67890  97.2870   9.3769 0001291  94.9709  11.3050 15.75197389  5022
STARLINK-36816          
1 67891U 26035N   26076.54610438  .00244257  00000+0  12365-2 0  9991
2 67891  97.2906   9.3727 0001945  87.7921 272.3570 15.80888197  5081
STARLINK-36813          
1 67892U 26035P   26076.55060558  .00276398  00000+0  13910-2 0  9993
2 67892  97.2906   9.3648 0001342 145.4871 214.6484 15.80933270  5087
STARLINK-36803          
1 67893U 26035Q   26076.55512149  .00164179  00000+0  83986-3 0  9996
2 67893  97.2898   9.3629 0001907 105.3435 254.8044 15.80866631  5089
STARLINK-36846          
1 67894U 26035R   26076.58335648 -.00111595  00000+0 -75555-3 0  9996
2 67894  97.2879   9.3699 0001756  98.6552 357.6179 15.75235752  5025
STARLINK-36866          
1 67895U 26035S   26076.58335648 -.00054884  00000+0 -36918-3 0  9994
2 67895  97.2872   9.3889 0001557 106.5012  33.7729 15.75206496  5025
STARLINK-36877          
1 67896U 26035T   26076.55435755  .00216265  00000+0  10987-2 0  9990
2 67896  97.2906   9.3587 0003997 177.6542 182.4745 15.80875640  5081
STARLINK-36870          
1 67897U 26035U   26076.36221201  .00346169  00000+0  17211-2 0  9993
2 67897  97.2912   9.1637 0000752  56.0109 304.1231 15.81019428  5053
STARLINK-36810          
1 67898U 26035V   26076.55136690  .00174418  00000+0  89118-3 0  9994
2 67898  97.2873   9.3702 0001415  65.3603 294.7813 15.80866507  5084
STARLINK-36878          
1 67899U 26035W   26076.61316467  .00240565  00000+0  12176-2 0  9990
2 67899  97.2879   9.4351 0002539  78.3550 281.8003 15.80899718  5094
STARLINK-36361          
1 67900U 26035X   26076.61241094  .00184864  00000+0  94349-3 0  9998
2 67900  97.2906   9.4365 0001384  91.0319 269.1107 15.80863597  5095
STARLINK-36336          
1 67901U 26035Y   26076.35694903  .00362486  00000+0  18159-2 0  9993
2 67901  97.2897   9.1729 0001180  97.3169 262.8233 15.80812174  5053
STARLINK-36876          
1 67902U 26035Z   26076.42176431  .00290948  00000+0  14693-2 0  9995
2 67902  97.2895   9.2383 0003934  63.8020 296.3653 15.80815458  5069
STARLINK-36257          
1 67903U 26035AA  26076.58335648 -.00040440  00000+0 -27139-3 0  9992
2 67903  97.2882   9.3856 0001480 110.1337  22.1381 15.75202516  5076
STARLINK-36814          
1 67904U 26036A   26076.58335648  .00038740  00000+0  66383-3 0  9996
2 67904  43.0002 203.0298 0001244 275.8416  46.2748 15.50539880  4914
STARLINK-36729          
1 67905U 26036B   26076.58335648 -.01852743  00000+0 -33870-1 0  9990
2 67905  43.0001 202.3849 0000825 279.1471 304.1321 15.52067533  4916
STARLINK-36763          
1 67906U 26036C   26076.58335648 -.01783399  00000+0 -31393-1 0  9999
2 67906  43.0005 202.3155 0001130 271.8205 339.6872 15.52965563  4919
STARLINK-36742          
1 67907U 26036D   26076.58335648 -.01949532  00000+0 -35083-1 0  9993
2 67907  43.0000 202.3618 0000753 280.2720 312.1867 15.52122803  4917
STARLINK-36827          
1 67908U 26036E   26076.58335648 -.01902887  00000+0 -29500-1 0  9993
2 67908  42.9997 202.0845 0001496 274.7480  69.7738 15.56609847  4910
STARLINK-36822          
1 67909U 26036F   26076.58335648 -.02115413  00000+0 -37538-1 0  9996
2 67909  42.9999 202.3058 0001705 260.4729 354.5115 15.52769259  4917
STARLINK-36847          
1 67910U 26036G   26076.58335648 -.01628584  00000+0 -29720-1 0  9999
2 67910  42.9999 202.3488 0001195 306.8756 290.3690 15.51679382  4915
STARLINK-36736          
1 67911U 26036H   26076.58335648 -.01900072  00000+0 -25811-1 0  9992
2 67911  42.9998 201.8780 0001639 282.6947 145.0570 15.60061921  4917
STARLINK-36676          
1 67912U 26036J   26076.58335648 -.01909046  00000+0 -28138-1 0  9998
2 67912  43.0000 201.9707 0001657 277.4265 112.7532 15.57952847  4910
STARLINK-36690          
1 67913U 26036K   26076.58335648 -.01905915  00000+0 -28044-1 0  9996
2 67913  43.0002 201.9582 0001670 278.2750 117.0333 15.57992033  4915
STARLINK-36724          
1 67914U 26036L   26076.58335648 -.01906883  00000+0 -27650-1 0  9994
2 67914  42.9999 201.9166 0001537 280.4526 131.2981 15.58378893  4915
